{"fetched_at":"2026-05-15T06:54:26Z","count":1513,"tles":[{"name":"IRIDIUM 33 DEB","line1":"1 34366U 97051FJ  26104.20588713  .00002042  00000+0  46442-3 0  9991","line2":"2 34366  86.3729 356.0024 0022578  87.6640  74.2926 14.55336307899625","category":"Other"},{"name":"STARLINK-3159","line1":"1 49415U 21104H   26133.42203847 -.00000066  00000+0  13943-4 0  9992","line2":"2 49415  53.2173 288.5270 0001317  88.9216 271.1927 15.08838914248532","category":"Starlink"},{"name":"ARKTIKA-M 2","line1":"1 58584U 23198A   26131.87078771  .00000209  00000+0  00000+0 0  9990","line2":"2 58584  63.2200 158.4122 6892538 267.5395  18.8214  2.00594641 17593","category":"Other"},{"name":"STARLINK-3949","line1":"1 52555U 22051Y   23362.50234891  .00000910  00000+0  75236-4 0  9996","line2":"2 52555  53.2162 130.3576 0001398  70.4540 289.6603 15.08840133 90410","category":"Starlink"},{"name":"STARLINK-31880","line1":"1 59661U 24084H   26133.93748977  .00002639  00000+0  10542-3 0  9998","line2":"2 59661  43.0037  29.7097 0000655 285.1145  74.9635 15.27573493114390","category":"Starlink"},{"name":"STARLINK-11654 [DTC]","line1":"1 63265U 25053A   26134.20422491  .00142748  00000+0  10954-2 0  9993","line2":"2 63265  43.0015  77.2909 0002034 270.7037  89.3598 15.70872612 67976","category":"Starlink"},{"name":"KUIPER-00370","line1":"1 68919U 26098A   26134.26071465 -.00002613  00000+0 -70518-4 0  9993","line2":"2 68919  51.8750 231.3689 0014814  32.2925 327.8964 15.32242572  2132","category":"Other"},{"name":"FENGYUN 1C DEB","line1":"1 33683U 99025DFU 23179.02745543  .00010941  00000+0  26012-2 0  9997","line2":"2 33683  98.2354  27.5121 0065862  39.4093 321.1868 14.52697702799871","category":"Weather"},{"name":"FENGYUN 1C DEB","line1":"1 36271U 99025DWY 23177.07019697  .00010644  00000+0  39670-2 0  9994","line2":"2 36271  99.0455 273.0005 0084598 328.1010  31.5064 14.30175315785806","category":"Weather"},{"name":"FENGYUN 1C DEB","line1":"1 30112U 99025RR  26104.88109988  .00000773  00000+0  29894-3 0  9997","line2":"2 30112  99.2963  90.5169 0200793 117.3437 244.8334 14.22713251993337","category":"Weather"},{"name":"STARLINK-1529","line1":"1 46067U 20055AS  23362.47812154  .00003229  00000+0  31483-4 0  9991","line2":"2 46067  53.0562  71.8463 0001526 114.5088 245.6088 15.69730434188211","category":"Starlink"},{"name":"STARLINK-30086","line1":"1 56297U 23056M   26134.24568478  .00000088  00000+0  12716-4 0  9991","line2":"2 56297  43.0030 198.8064 0001539 279.2041  80.8637 15.27565746170064","category":"Starlink"},{"name":"STARLINK-30431","line1":"1 57852U 23141N   26134.27214829 -.00000061  00000+0  10069-4 0  9996","line2":"2 57852  53.1596 339.1691 0001013  89.4613 270.6503 15.30191936150362","category":"Starlink"},{"name":"STARLINK-33860","line1":"1 64033U 25102M   26134.18253785  .00001612  00000+0  14284-3 0  9992","line2":"2 64033  69.9998 309.2710 0003229 272.3644  87.7146 14.98336920 55776","category":"Starlink"},{"name":"UNKNOWN","line1":"1 89490U          23360.65032941  .00015283  00000+0  54575-2 0  9990","line2":"2 89490  98.4204 309.0351 0099879 178.3876 181.7649 14.31422930378106","category":"Other"},{"name":"CZ-3B DEB","line1":"1 40191U 11077Q   26102.67550544  .00000210  00000+0  17468-2 0  9998","line2":"2 40191  26.4988 269.6460 7443601 173.9739 207.2309  1.95053032 78513","category":"Other"},{"name":"2024-153F","line1":"1 60750U 24153F   26134.29227459  .00008751  00000+0  35309-3 0  9992","line2":"2 60750  97.6665 270.0258 0005551  21.6056 338.5414 15.25038547 94639","category":"Other"},{"name":"2024-024K","line1":"1 58926U 24024K   24064.13933706  .01066497  22891-5  11415-2 0  9994","line2":"2 58926  97.4070 143.4467 0178435 226.4321 132.2019 15.85690903 41410","category":"Other"},{"name":"STARLINK-34707","line1":"1 65176U 25175C   26134.13309978  .00004657  00000+0  32657-3 0  9998","line2":"2 65176  97.4978   6.9139 0001404  69.6433 290.4945 15.05657924 42484","category":"Starlink"},{"name":"STARLINK-11488 [DTC]","line1":"1 62222U 24231E   26134.29355090  .00146905  00000+0  11952-2 0  9999","line2":"2 62222  53.1562 137.9855 0001066  94.6665 265.4475 15.69726496 83712","category":"Starlink"},{"name":"STARLINK-36860","line1":"1 67935U 26037D   26133.85435664  .00009038  00000+0  33761-3 0  9996","line2":"2 67935  43.0007 182.9956 0001209 268.7843  91.2870 15.27573235 13300","category":"Starlink"},{"name":"STARLINK-11155 [DTC]","line1":"1 60046U 24112J   26133.51111919  .00002929  00000+0  29029-4 0  9996","line2":"2 60046  53.1605 306.5958 0000789  81.0447 279.0660 15.69701567111169","category":"Starlink"},{"name":"STARLINK-35537","line1":"1 66234U 25245A   26134.27935402  .00020190  00000+0  66012-3 0  9996","line2":"2 66234  53.1605 338.8847 0000229 138.7256 221.3763 15.31724174 31305","category":"Starlink"},{"name":"THAICOM 2","line1":"1 23314U 94065B   26104.40183870  .00000023  00000+0  00000+0 0  9994","line2":"2 23314  11.3601  39.1095 0002325 245.7380 312.6998  0.99586095 45733","category":"Other"},{"name":"FENGYUN 2G DEB","line1":"1 43646U 14090D   26102.41874027 -.00000107  00000+0  00000+0 0  9998","line2":"2 43646   7.3748  69.0579 0226155 288.5177  69.0868  1.00212982 41040","category":"Weather"},{"name":"STARLINK-5417","line1":"1 54805U 22175AZ  26134.26748749 -.00000531  00000+0 -15297-4 0  9990","line2":"2 54805  53.2168  94.4387 0001406  84.1740 275.9413 15.08834956190032","category":"Starlink"},{"name":"STARLINK-33674","line1":"1 63329U 25057Y   26133.92557240  .00010560  00000+0  39266-3 0  9991","line2":"2 63329  43.0020  22.4989 0001636 270.5079  89.5586 15.27584999 65757","category":"Starlink"},{"name":"CAS500-2 RIDESHARE OBJE*","line1":"1 68983U 26100D   26134.13532351  .00001025  00000+0  10856-3 0  9992","line2":"2 68983  97.7415  32.2183 0002126 247.5062 112.5931 14.91272509  1626","category":"Other"},{"name":"COSMOS 2251 DEB","line1":"1 33791U 93036AG  26104.63425880  .00000837  00000+0  25198-3 0  9998","line2":"2 33791  74.1738 171.1301 0030087 326.8580 154.9653 14.43833276898255","category":"Other"},{"name":"ONEWEB-0267","line1":"1 48985U 21060U   26134.32209950 -.00000290  00000+0 -79132-3 0  9996","line2":"2 48985  87.9103 235.4948 0001982  94.9172 265.2185 13.16593996235136","category":"Other"},{"name":"COSMOS 2251 DEB","line1":"1 36533U 93036BCT 26104.78947919  .00000704  00000+0  18541-3 0  9990","line2":"2 36533  74.0098 243.3838 0048052   1.4231 358.7057 14.50246893862688","category":"Other"},{"name":"SPACEBEE-138","line1":"1 52166U 22033K   23276.02758408  .16233427  25140-5  44957-3 0  9991","line2":"2 52166  97.3099   5.4945 0013924 274.0332  85.9378 16.44280108 84428","category":"Other"},{"name":"FENGYUN 1C DEB","line1":"1 30194U 99025VB  23179.17337081  .00009913  00000+0  28216-2 0  9996","line2":"2 30194 101.2432 139.5570 0045924 276.8427  94.9348 14.44966497856002","category":"Weather"},{"name":"STARLINK-1603","line1":"1 46162U 20057AX  23362.07048586  .00018368  00000+0  12484-2 0  9993","line2":"2 46162  53.0551 299.7171 0001416  83.6235 276.4915 15.06410627186040","category":"Starlink"},{"name":"STARLINK-5972","line1":"1 56362U 23058AX  26134.26384681  .00000819  00000+0  60854-4 0  9998","line2":"2 56362  97.4955 135.6728 0001994  90.3729 269.7727 15.05646719168063","category":"Starlink"},{"name":"STARLINK-30491","line1":"1 57916U 23147D   23362.10252077  .00052274  00000+0  25448-2 0  9999","line2":"2 57916  43.0016  12.5313 0001465 113.9179 246.1823 15.17616296 15833","category":"Starlink"},{"name":"STARLINK-34174","line1":"1 64097U 25110B   26134.25358077  .00013544  00000+0  41115-3 0  9999","line2":"2 64097  53.1610  82.0148 0001121  74.7980 285.3147 15.34407583 55928","category":"Starlink"},{"name":"CZ-6A DEB","line1":"1 60814U 24140GR  24249.22068205  .00004018  00000+0  22259-2 0  9990","line2":"2 60814  89.0889 348.2340 0093429 135.6429 225.2290 14.08901281  3339","category":"Other"},{"name":"STARLINK-36088","line1":"1 66941U 25286S   26134.21179330  .00012485  00000+0  37991-3 0  9992","line2":"2 66941  53.1594  53.7415 0000863 105.5233 254.5865 15.34409473 25457","category":"Starlink"},{"name":"STARLINK-34953","line1":"1 65240U 25179F   26134.13253724  .00003777  00000+0  26570-3 0  9990","line2":"2 65240  97.4931 177.2611 0000900 142.6275 217.5015 15.05658225 41828","category":"Starlink"},{"name":"STARLINK-33564","line1":"1 62286U 24237V   26134.22812569  .00013173  00000+0  48725-3 0  9996","line2":"2 62286  42.9967 206.3664 0000890 289.9199  70.1557 15.27587000 81216","category":"Starlink"},{"name":"STARLINK-36926","line1":"1 67999U 26039P   26133.98218641  .00010897  00000+0  40484-3 0  9991","line2":"2 67999  43.0059  39.7980 0001124 268.5853  91.4870 15.27586149 11698","category":"Starlink"},{"name":"ONEWEB-0298","line1":"1 49087U 21075N   26134.09674998  .00000708  00000+0  17899-2 0  9991","line2":"2 49087  87.9163  12.6451 0001597  90.1204 270.0110 13.17655917229134","category":"Other"},{"name":"STARLINK-32015","line1":"1 60111U 24117W   26134.15123857  .00000284  00000+0  21712-4 0  9992","line2":"2 60111  53.1603  92.7225 0001387  82.8926 277.2233 15.30192005106919","category":"Starlink"},{"name":"SEMI-1P","line1":"1 66298U 25248F   26133.49998311  .00005153  00000+0  24236-3 0  9994","line2":"2 66298  45.3836 305.9216 0013595 200.9409 159.0922 15.20709047 29256","category":"Other"},{"name":"MOVE-II","line1":"1 43780U 18099Y   25194.80194206  .15913345  26116-5  37118-3 0  9995","line2":"2 43780  97.4526 273.8800 0018736 270.1080  89.8075 16.44566529363241","category":"Other"},{"name":"STARLINK-33645","line1":"1 63412U 25065P   26134.28344798  .00016717  00000+0  61525-3 0  9998","line2":"2 63412  43.0039  99.8559 0002178 275.8285  84.2318 15.27599118 62830","category":"Starlink"},{"name":"STARLINK-37576","line1":"1 69047U 26101Y   26134.25002315 -.01920614  00000+0 -90800-2 0  9993","line2":"2 69047  97.2886 348.4773 0001948  84.2803 103.5298 15.85766932  2474","category":"Starlink"}]}